GPS BIIF-6  (PRN 06)    
1 39741U 14026A   26060.76696616 -.00000096  00000+0  00000+0 0  9992
2 39741  56.5477 335.7023 0039902 324.3529  35.4088  2.00568780 86383
COSMOS 2500 (755)       
1 40001U 14032A   26061.04898512 -.00000045  00000+0  00000+0 0  9995
2 40001  65.2942 317.3353 0005231 203.2549 156.7786  2.13105727 91172
GSAT0201 (GALILEO 5)    
1 40128U 14050A   26059.54184441  .00000000  00000+0  00000+0 0  9996
2 40128  48.9916 277.8823 1657122 175.1843 186.6547  1.85519933 76301
GSAT0202 (GALILEO 6)    
1 40129U 14050B   26058.18083150  .00000012  00000+0  00000+0 0  9994
2 40129  49.0095 277.0224 1657890 175.8719 185.7122  1.85520639 78441
IRNSS-1C                
1 40269U 14061A   26061.71726219 -.00000175  00000+0  00000+0 0  9995
2 40269   6.2443  91.0090 0019785 356.5473  54.1426  1.00270095 41623
GPS BIIF-8  (PRN 03)    
1 40294U 14068A   26061.23119693 -.00000069  00000+0  00000+0 0  9991
2 40294  56.9180  35.0755 0062709  68.0408 292.6148  2.00569663 83061
COSMOS 2501 (702K)      
1 40315U 14075A   26060.84023701 -.00000015  00000+0  00000+0 0  9994
2 40315  63.6170 194.0851 0020735 205.7160 154.1408  2.13101099 87569
GPS BIIF-9  (PRN 26)    
1 40534U 15013A   26061.36244132 -.00000015  00000+0  00000+0 0  9991
2 40534  53.1867 208.5939 0108729  39.7757 320.9603  2.00557677 79681
GSAT0203 (GALILEO 7)    
1 40544U 15017A   26058.52158611 -.00000103  00000+0  00000+0 0  9994
2 40544  56.8234 344.5881 0005161 295.0116  64.9415  1.70475495 67337
GSAT0204 (GALILEO 8)    
1 40545U 15017B   26058.19060141 -.00000102  00000+0  00000+0 0  9997
2 40545  56.8295 344.6151 0004389 286.3298  73.6287  1.70475370 30371
BEIDOU-3S IGSO-1S (C31) 
1 40549U 15019A   26061.65185574 -.00000159  00000+0  00000+0 0  9998
2 40549  49.3937 296.7449 0035828 190.3764   4.4663  1.00274083 40008
GPS BIIF-10 (PRN 08)    
1 40730U 15033A   26061.52302351  .00000001  00000+0  00000+0 0  9991
2 40730  54.0659 271.4826 0114453  28.9403 331.7281  2.00561632 77856
BEIDOU-3S M2S (C58)     
1 40748U 15037A   26061.47039307 -.00000051  00000+0  00000+0 0  9992
2 40748  54.9645 305.7221 0008898 278.2960  81.6638  1.86231797 72134
GSAT0205 (GALILEO 9)    
1 40889U 15045A   26043.95434207  .00000078  00000+0  00000+0 0  9996
2 40889  53.6403 225.6057 0359599  59.9658 303.5577  1.67410800 64211
